[Satellite]
VERSION=1.1
NAME=UNIBRITE
NICKNAME=MSST00---Movimento_do_Sem_SaTelites
TLE1=1 39092U 13009G   15054.13035805  .00000167  00000-0  74694-4 0  9994
TLE2=2 39092  98.6096 252.9215 0008320 285.1711  74.8554 14.34705577104299
